[{"OBJECT_NAME":"TIGER-6","OBJECT_ID":"2023-174S","EPOCH":"2026-03-09T17:36:28.852992","MEAN_MOTION":15.68857868,"ECCENTRICITY":0.0003121,"INCLINATION":97.3904,"RA_OF_ASC_NODE":161.9275,"ARG_OF_PERICENTER":155.9023,"MEAN_ANOMALY":204.2385,"EPHEMERIS_TYPE":0,"CLASSIFICATION_TYPE":"U","NORAD_CAT_ID":58272,"ELEMENT_SET_NO":999,"REV_AT_EPOCH":13064,"BSTAR":0.00098002434,"MEAN_MOTION_DOT":0.00113437,"MEAN_MOTION_DDOT":0},{"OBJECT_NAME":"STARLINK-11137 [DTC]","OBJECT_ID":"2024-112N","EPOCH":"2026-03-09T22:27:24.753024","MEAN_MOTION":15.6970584,"ECCENTRICITY":0.00010851,"INCLINATION":53.1586,"RA_OF_ASC_NODE":264.7609,"ARG_OF_PERICENTER":78.3297,"MEAN_ANOMALY":281.7842,"EPHEMERIS_TYPE":0,"CLASSIFICATION_TYPE":"U","NORAD_CAT_ID":60050,"ELEMENT_SET_NO":999,"REV_AT_EPOCH":10102,"BSTAR":2.6011955e-5,"MEAN_MOTION_DOT":2.563e-5,"MEAN_MOTION_DDOT":0}]
